GLOBALSTAR M067         
1 32263U 07048A   25193.81264295 -.00000113  00000+0 -11887-3 0  9996
2 32263  51.9752 320.9511 0001401  69.7023  88.2705 12.40674132812664
GLOBALSTAR M070         
1 32264U 07048B   25193.87171014 -.00000074  00000+0  16405-3 0  9995
2 32264  51.9761  50.2578 0000794  84.4950 349.5655 12.62320087816918
GLOBALSTAR M066         
1 32265U 07048C   25193.76129209 -.00000076  00000+0  15776-3 0  9995
2 32265  51.9651 312.2509 0004212  38.7778 112.6701 12.29937217818444
GLOBALSTAR M068         
1 32266U 07048D   25193.49874463 -.00000087  00000+0  93903-4 0  9996
2 32266  51.9862 225.0998 0001162 186.6795 325.9338 12.62826378820759
GLOBALSTAR M079         
1 37188U 10054A   25193.90101395 -.00000089  00000+0  80836-4 0  9991
2 37188  52.0047  61.5090 0000871  50.0427 322.8932 12.62265463679707
GLOBALSTAR M074         
1 37189U 10054B   25193.92790976 -.00000086  00000+0  98862-4 0  9998
2 37189  52.0028  60.7478 0000937  70.4385 303.0899 12.62266580680313
GLOBALSTAR M076         
1 37190U 10054C   25193.95405949 -.00000088  00000+0  90642-4 0  9996
2 37190  52.0039  60.8398 0001038  60.3606 312.9913 12.62263480680037
GLOBALSTAR M077         
1 37191U 10054D   25193.88955875 -.00000106  00000+0 -11940-4 0  9993
2 37191  52.0089  17.8998 0000887  85.7915  54.7433 12.62268846680394
